{
  "type": "FeatureCollection",
  "features": [
    {
      "type": "Feature",
      "properties": {
        "layer": "parcel",
        "apn": "510-132-010",
        "zoning": "RL2",
        "front": "Panama Ave (west)"
      },
      "geometry": {
        "type": "Polygon",
        "coordinates": [
          [
            [
              -122.30841504047537,
              37.90668941063862
            ],
            [
              -122.30837556098757,
              37.90663137690923
            ],
            [
              -122.3085262756675,
              37.906566848983445
            ],
            [
              -122.30869213631169,
              37.90680987657639
            ],
            [
              -122.30854099284663,
              37.90687453487628
            ],
            [
              -122.30841504047537,
              37.90668941063862
            ]
          ]
        ]
      }
    },
    {
      "type": "Feature",
      "properties": {
        "layer": "buildable_envelope_ground_floor",
        "area_sqft": 2396.7
      },
      "geometry": {
        "type": "Polygon",
        "coordinates": [
          [
            [
              -122.30842366806434,
              37.90667315316222
            ],
            [
              -122.3085439715576,
              37.90662164567211
            ],
            [
              -122.30864394453005,
              37.90676813124121
            ],
            [
              -122.30852337871235,
              37.90681970860047
            ],
            [
              -122.30843030699042,
              37.906682912195606
            ],
            [
              -122.30842366806434,
              37.90667315316222
            ]
          ]
        ]
      }
    },
    {
      "type": "Feature",
      "properties": {
        "layer": "buildable_envelope_second_story",
        "area_sqft": 1911.2
      },
      "geometry": {
        "type": "Polygon",
        "coordinates": [
          [
            [
              -122.30843586532026,
              37.90666793095278
            ],
            [
              -122.30853177433086,
              37.906626867869065
            ],
            [
              -122.30863174503506,
              37.90677335011459
            ],
            [
              -122.30853557822964,
              37.90681448971756
            ],
            [
              -122.30844252020245,
              37.9066777134412
            ],
            [
              -122.30843586532026,
              37.90666793095278
            ]
          ]
        ]
      }
    },
    {
      "type": "Feature",
      "properties": {
        "layer": "buildable_envelope_ground_floor_reduced_rear",
        "area_sqft": 2791.2
      },
      "geometry": {
        "type": "Polygon",
        "coordinates": [
          [
            [
              -122.3084072378109,
              37.906649001154825
            ],
            [
              -122.30852750034585,
              37.90659751120087
            ],
            [
              -122.30864394453005,
              37.90676813124121
            ],
            [
              -122.30852337871235,
              37.90681970860047
            ],
            [
              -122.30843030699042,
              37.906682912195606
            ],
            [
              -122.3084072378109,
              37.906649001154825
            ]
          ]
        ]
      }
    },
    {
      "type": "Feature",
      "properties": {
        "layer": "existing_house_footprint",
        "source": "OSM via City of Richmond",
        "area_sqft": 1360.0
      },
      "geometry": {
        "type": "Polygon",
        "coordinates": [
          [
            [
              -122.308632914007,
              37.9068184627483
            ],
            [
              -122.30862481367,
              37.9068074636252
            ],
            [
              -122.308581814189,
              37.9068270629698
            ],
            [
              -122.308584513446,
              37.9068306632723
            ],
            [
              -122.308540913737,
              37.906850462842
            ],
            [
              -122.308485714042,
              37.9067749634904
            ],
            [
              -122.308612413401,
              37.9067173632338
            ],
            [
              -122.308673014142,
              37.9068001631209
            ],
            [
              -122.308632914007,
              37.9068184627483
            ]
          ]
        ]
      }
    },
    {
      "type": "Feature",
      "properties": {
        "layer": "existing_garage_footprint",
        "source": "OSM via City of Richmond",
        "area_sqft": 277.1
      },
      "geometry": {
        "type": "Polygon",
        "coordinates": [
          [
            [
              -122.308507413606,
              37.9066453633902
            ],
            [
              -122.308479913995,
              37.906611463336
            ],
            [
              -122.308535614138,
              37.9065833634257
            ],
            [
              -122.30854803114373,
              37.90659872623224
            ],
            [
              -122.30856128012634,
              37.90661813932671
            ],
            [
              -122.308507413606,
              37.9066453633902
            ]
          ]
        ]
      }
    }
  ]
}